IRIDIUM 36              
1 24967U 97056C   24283.74380246  .00001964  00000+0  65513-3 0  9990
2 24967  86.3908 278.1724 0002586  92.4482 267.7012 14.37099584416247
IRIDIUM 39              
1 25042U 97069D   24284.53722012  .00002859  00000+0  75584-3 0  9991
2 25042  86.3904 318.1845 0020173  64.0651 296.2628 14.48446176413075
IRIDIUM 38              
1 25043U 97069E   24283.85344945  .00001985  00000+0  65575-3 0  9999
2 25043  86.3988 338.4988 0002485 141.3049 218.8327 14.37596746409985
IRIDIUM 42              
1 25077U 97077A   24283.76429715  .00001914  00000+0  65434-3 0  9990
2 25077  86.4001 344.3936 0001912 112.6197 247.5203 14.35871776405252
IRIDIUM 44              
1 25078U 97077B   24283.83600441  .00002012  00000+0  63671-3 0  9997
2 25078  86.3963 326.9623 0003877 110.2388 249.9228 14.39715115407675
IRIDIUM 45              
1 25104U 97082A   24283.71103634  .00026543  00000+0  12950-2 0  9990
2 25104  86.3671 168.2701 0144958 180.2713 179.8472 15.09291284414090
IRIDIUM 24              
1 25105U 97082B   24283.85072332  .00002490  00000+0  75986-3 0  9990
2 25105  86.3981 186.3627 0011222 173.3882 186.7468 14.41549785407394
IRIDIUM 51              
1 25262U 98018A   24283.74649489  .00035884  00000+0  13755-2 0  9993
2 25262  86.3974 177.7053 0130983 117.3755 244.0887 15.18620491408753
